P/2020 A4 (PANSTARRS-Lemmon),e,24.9904,312.3864,144.7653,8.193760,0.0420222,0.65391676,50.3070,03/04.0/2023,2000,g 15.0,4.0
# From MPEC 2020-N08
A/2020 B1,e,18.5179,309.9652,154.7192,51.38010,0.0026762,0.96610602,3.1144,03/04.0/2023,2000,g 21.0,2.0
# From MPEC 2022-N37
C/2020 B3 (Rankin),e,20.7098,185.8494,324.9226,954.0372,0.0000334,0.99650168,0.0000,10/19.4103/2019,2000,g 13.0,4.0
# From MPEC 2022-H04
P/2020 B4 (Sheppard),e,11.6094,185.9793,342.1011,7.966609,0.0438323,0.19176441,20.5698,03/04.0/2023,2000,g 10.5,4.0
# From MPEC 2023-D72
C/2020 F2 (ATLAS),h,07/15.0867/2022,163.5878,250.2862,48.3352,1.005439,8.816827,2000,4.5,4.0
# From MPEC 2021-O56
C/2020 F3 (NEOWISE),e,129.0974,61.0691,37.3561,354.9463,0.0001474,0.99916696,0.0000,07/03.6872/2020,2000,g  7.5,5.2
# From MPEC 2023-C45
C/2020 F5 (MASTER),e,52.2113,350.5040,310.6812,180.7693,0.0004055,0.97607988,0.0000,03/17.7436/2021,2000,g  6.5,3.2
# From MPEC 2020-L06
C/2020 F6 (PANSTARRS),e,174.5830,207.9089,344.5665,405.3742,0.0001208,0.99135016,0.0000,04/11.7380/2020,2000,g 14.5,2.8
# From MPEC 2023-D72
C/2020 F7 (Lemmon),e,93.9505,321.8734,227.9504,592.2246,0.0000684,0.99099660,0.0000,11/13.7633/2021,2000,g  7.0,4.0
# From MPEC 2020-KB7
C/2020 F8 (SWAN),e,110.6584,259.8829,68.1330,256.3358,0.0002402,0.99832444,0.0000,05/27.4000/2020,2000,g 10.0,4.0
# From MPEC 2020-L06
P/2020 G1 (Pimentel),e,18.5076,240.1228,207.5977,3.608440,0.1437887,0.86032164,155.5001,03/04.0/2023,2000,g 17.0,4.0
# From MPEC 2022-YB4
C/2020 H2 (Pruyne),e,124.9288,277.6633,26.6753,190.4309,0.0003751,0.99563267,0.0000,04/27.8236/2020,2000,g 14.0,3.2
# From MPEC 2020-HM1
C/2020 H3 (Wierzchos),p,06/05.7162/2020,62.5292,30.4456,2.300288,270.6227,2000,13.5,4.0
# From MPEC 2020-L06
C/2020 H4 (Leonard),e,84.4991,307.6636,117.5451,47.87117,0.0029757,0.98068354,0.0000,08/29.6381/2020,2000,g 15.0,3.2
# From MPEC 2023-D72
C/2020 H5 (Robinson),e,70.2542,210.6274,326.3486,3798,0.0000042,0.99753999,0.0000,12/10.9441/2020,2000,g  5.0,4.0
# From MPEC 2023-D72
C/2020 H6 (ATLAS),e,79.9777,213.7188,20.3125,15281,0.0000005,0.99969230,0.0000,09/30.7738/2021,2000,g  8.0,3.2
# From MPEC 2020-KB7
C/2020 H7 (Lemmon),e,135.9235,323.5194,82.6780,1405,0.0000187,0.99685380,0.0000,06/02.9510/2020,2000,g 11.0,4.0
# From MPEC 2021-N06
C/2020 H8 (PANSTARRS),e,99.6846,68.4238,128.9422,596.4944,0.0000677,0.99216212,0.0000,06/04.5056/2020,2000,g 10.5,4.0
# From MPEC 2022-ED3
A/2020 H9,e,137.8786,213.1795,312.8444,372.1494,0.0001373,0.99308142,0.0000,12/21.5904/2019,2000,g 18.0,2.0
# From MPEC 2023-D72
C/2020 J1 (SONEAR),h,04/18.6457/2021,142.3047,226.6022,341.7506,1.000783,3.353815,2000,8.5,3.2
# From MPEC 2023-D72
C/2020 K1 (PANSTARRS),h,05/09.0783/2023,89.6696,94.3550,213.9843,1.000008,3.073279,2000,5.5,4.0
# From MPEC 2021-N06
C/2020 K2 (PANSTARRS),h,08/06.3697/2020,91.0299,288.3889,67.3506,1.003936,8.879850,2000,10.8,4.0
# From MPEC 2020-KF9
C/2020 K3 (Leonard),p,06/01.0032/2020,129.0152,64.4924,1.583069,28.3546,2000,14.5,4.0
# From MPEC 2020-L06
C/2020 K4 (PANSTARRS),e,125.5821,264.1844,308.8598,23.95958,0.0084040,0.92679208,9.2032,03/04.0/2023,2000,g 16.5,4.0
# From MPEC 2021-R75
C/2020 K5 (PANSTARRS),h,06/05.4984/2021,67.1206,86.1634,249.6093,1.001408,1.536572,2000,11.0,4.0
# From MPEC 2023-C45
C/2020 K6 (Rankin),h,09/15.8409/2021,103.6498,291.5493,44.3362,1.003684,5.868874,2000,8.0,4.0
# From MPEC 2023-A50
C/2020 K7 (PANSTARRS),e,32.0414,286.0768,358.2602,99.01571,0.0010003,0.93543055,1.2231,03/04.0/2023,2000,g  8.0,4.0
# From MPEC 2021-P47
C/2020 K8 (Catalina-ATLAS),h,09/14.7914/2020,31.4282,181.5422,259.9586,1.000175,0.472194,2000,15.0,3.2
# From MPEC 2021-BE3
P/2020 K9 (Lemmon-PANSTARRS),e,23.2088,166.2425,197.0449,4.202474,0.1144054,0.32132160,85.7605,03/04.0/2023,2000,g 12.5,4.0
# From MPEC 2023-C45
P/2020 M1 (PANSTARRS),e,8.5407,142.6410,72.6372,5.317159,0.0803868,0.47403882,93.5310,03/04.0/2023,2000,g 14.5,4.0
# From MPEC 2022-H30
C/2020 M3 (ATLAS),e,23.4761,71.1680,328.5455,27.07805,0.0069948,0.95316250,6.0096,03/04.0/2023,2000,g 14.5,4.0
# From MPEC 2023-B57
A/2020 M4,h,11/24.2155/2020,160.1262,348.6224,104.6424,1.001020,5.951319,2000,14.5,2.0
# From MPC xxxxx
P/2020 MK4 (PANSTARRS),e,6.8013,0.7148,105.7755,6.201882,0.0638144,0.01162681,251.6396,03/04.0/2023,2000,g  8.0,4.0
# From MPEC 2023-D72
C/2020 M5 (ATLAS),h,08/19.8604/2021,93.2213,352.0916,126.3102,1.000408,3.003124,2000,9.0,4.0
# From MPEC 2022-GA9
C/2020 N1 (PANSTARRS),h,03/12.3166/2021,29.7216,279.9339,186.7576,1.000452,1.318783,2000,12.5,4.0
# From MPEC 2021-P47
C/2020 N2 (ATLAS),e,161.0342,257.1513,331.3138,104.4774,0.0009229,0.98283670,0.0000,08/24.0355/2020,2000,g 16.0,3.2
# From MPEC 2022-YB4
P/2020 O1 (Lemmon-PANSTARRS),e,5.2255,175.9748,104.4985,2.645612,0.2290418,0.11889931,237.3174,03/04.0/2023,2000,g 15.5,4.0
# From MPEC 2022-Y15
C/2020 O2 (Amaral),h,08/28.5705/2021,71.7595,256.7702,10.3090,1.001735,4.862498,2000,8.0,3.2
# From MPEC 2023-C45
P/2020 O3 (PANSTARRS),e,8.4440,266.8188,81.6662,4.648070,0.0983547,0.10322246,74.9954,03/04.0/2023,2000,g 12.0,4.0
# From MPEC 2021-BE3
C/2020 P1 (NEOWISE),h,10/20.3918/2020,45.1655,53.4885,8.8888,1.000308,0.341051,2000,14.0,3.2
# From MPEC 2023-D72
C/2020 P3 (ATLAS),h,04/21.2602/2021,61.8896,19.4653,82.2708,1.001233,6.812463,2000,6.0,4.0
# From MPEC 2022-PB4
C/2020 PV6 (PANSTARRS),e,128.2300,329.1486,71.3887,42.06754,0.0036123,0.94543892,1.8925,03/04.0/2023,2000,g 10.0,4.0
# From MPEC 2022-L66
C/2020 Q1 (Borisov),e,142.9395,52.3920,9.9503,60.83696,0.0020771,0.97834369,0.0000,08/14.4315/2020,2000,g 14.0,4.0
# From MPEC 2023-CD7
C/2020 Q2 (PANSTARRS),e,3.3361,179.8279,118.2707,10.65531,0.0283371,0.49261275,31.9829,03/04.0/2023,2000,g 12.0,3.2
# From MPEC 2022-X67
C/2020 R2 (PANSTARRS),e,53.2281,195.0928,211.7863,408.3755,0.0001194,0.98850914,0.0000,02/24.8520/2022,2000,g  9.0,4.0
# From MPEC 2022-K19
C/2020 R4 (ATLAS),e,164.4541,323.2733,46.6962,99.85214,0.0009878,0.98971168,0.0000,03/02.1369/2021,2000,g 13.5,4.0
# From MPEC 2023-C45
P/2020 R5 (PANSTARRS),e,11.4458,272.9710,82.6008,4.986996,0.0885005,0.31455497,89.2566,03/04.0/2023,2000,g  9.5,6.0
# From MPEC 2021-Y10
C/2020 R6 (Rankin),e,82.8110,12.1776,271.9924,319.1060,0.0001729,0.99018002,0.0000,09/08.6723/2019,2000,g 11.0,4.0
# From MPEC 2023-D72
C/2020 R7 (ATLAS),h,09/16.2517/2022,114.8949,268.2828,347.8413,1.000252,2.956008,2000,7.0,3.2
# From MPEC 2021-BE3
P/2020 S1 (PANSTARRS),e,13.7291,129.4628,255.0141,5.992263,0.0671920,0.50774161,52.1066,03/04.0/2023,2000,g 14.0,4.0
# From MPEC 2022-ST7
C/2020 S2 (PANSTARRS),e,22.4046,197.6623,202.3378,10.22001,0.0301667,0.82810821,24.1883,03/04.0/2023,2000,g 17.0,4.0
# From MPEC 2022-C56
C/2020 S3 (Erasmus),e,20.0155,222.6017,350.0957,154.0949,0.0005153,0.99742913,0.0000,12/12.1302/2020,2000,g 13.5,3.2
# From MPEC 2023-D72
C/2020 S4 (PANSTARRS),h,02/09.2364/2023,20.5697,117.7215,20.9909,1.001214,3.369735,2000,8.5,3.2
# From MPEC 2021-BE3
P/2020 S5 (PANSTARRS),e,12.3482,316.0006,53.2097,4.054034,0.1207460,0.33851974,113.1283,03/04.0/2023,2000,g 14.5,4.0
# From MPEC 2021-BE3
P/2020 S7 (PANSTARRS),e,16.0881,328.0279,40.5746,5.030241,0.0873617,0.41070727,72.9704,03/04.0/2023,2000,g 14.5,4.0
# From MPEC 2021-P47
C/2020 S8 (Lemmon),e,108.5275,24.0682,160.2847,265.1232,0.0002283,0.99109150,0.0000,04/10.8420/2021,2000,g 12.5,4.0
# From MPEC 2022-ST7
C/2020 T2 (Palomar),e,27.8554,82.9745,150.5167,310.8779,0.0001798,0.99338236,0.0000,07/11.0664/2021,2000,g 11.0,3.2
# From MPEC 2021-N06
P/2020 T3 (PANSTARRS),e,7.2986,73.9901,357.0379,3.516993,0.1494331,0.59205751,115.4007,03/04.0/2023,2000,g 18.0,3.2
# From MPEC 2021-N06
C/2020 T4 (PANSTARRS),h,07/05.3158/2021,83.8377,50.6146,79.6079,1.000219,2.191537,2000,13.0,3.2
# From MPEC 2021-BE3
C/2020 T5 (Lemmon),e,66.5622,237.8437,90.3324,760.4464,0.0000470,0.99751322,0.0000,10/09.3854/2020,2000,g 16.0,4.0
# From MPEC 2021-N06
P/2020 U2 (PANSTARRS),e,6.4198,342.8875,84.6419,3.778017,0.1342172,0.51108785,107.1051,03/04.0/2023,2000,g 18.0,4.0
# From MPEC 2021-W31
C/2020 U3 (Rankin),e,30.1591,282.6470,124.3326,66.42658,0.0018205,0.96572278,1.3760,03/04.0/2023,2000,g 15.0,4.0
# From MPEC 2023-CD7
C/2020 U4 (PANSTARRS),h,04/09.3664/2022,167.0289,120.2210,69.8922,1.002603,5.356725,2000,7.0,4.0
# From MPEC 2022-YB4
C/2020 U5 (PANSTARRS),e,97.2721,107.3282,75.4315,3816,0.0000042,0.99901577,0.0000,04/27.9542/2022,2000,g  8.0,4.0
# From MPEC 2023-D72
C/2020 V2 (ZTF),h,05/08.5696/2023,131.6109,212.3721,162.4317,1.000942,2.227837,2000,4.9,4.0
# From MPEC 2023-D72
P/2020 V3 (PANSTARRS),e,23.0331,198.2520,249.3433,8.383721,0.0406021,0.25681356,30.5764,03/04.0/2023,2000,g  8.3,4.0
# From MPEC 2023-D41
P/2020 V4 (Rankin),e,14.2442,203.4830,257.0244,9.366540,0.0343823,0.45034120,20.4186,03/04.0/2023,2000,g  9.0,4.0
# From MPEC 2021-BE3
P/2020 W1 (Rankin),e,10.7876,124.2715,265.1227,7.213664,0.0508710,0.26632321,53.9080,03/04.0/2023,2000,g 10.0,4.0
# From MPEC 2021-BE3
C/2020 W5 (Lemmon),h,11/30.0917/2020,88.5943,75.4729,24.4952,1.000747,3.365098,2000,15.0,4.0
# From MPEC 2023-D72
P/2020 WJ5 (Lemmon),e,22.2939,177.8099,338.1905,6.015977,0.0667951,0.17131817,40.8086,03/04.0/2023,2000,g  8.5,4.0
# From MPEC 2021-P47
P/2020 X1 (ATLAS),e,31.6927,55.9929,323.4158,4.530451,0.1022096,0.36550060,97.7282,03/04.0/2023,2000,g 13.0,4.0
# From MPEC 2021-U31
C/2020 X2 (ATLAS),e,18.1852,105.4253,347.3656,16.44807,0.0147751,0.76732159,12.3811,03/04.0/2023,2000,g 10.6,4.0
# From MPEC 2021-S45
C/2020 X4 (Leonard),e,80.6061,161.8822,140.3058,40.74948,0.0037890,0.87185316,3.1751,03/04.0/2023,2000,g  9.0,4.0
# From MPEC 2023-D72
C/2020 Y2 (ATLAS),e,101.2989,26.5139,266.1274,1076,0.0000279,0.99708930,0.0000,06/17.7796/2022,2000,g  6.5,4.0
# From MPEC 2021-R75
C/2020 Y3 (ATLAS),e,83.1010,191.4418,341.9623,143.3283,0.0005744,0.98606927,0.0000,12/03.3356/2020,2000,g 13.5,4.0
# From MPEC 2023-CD7
C/2021 A1 (Leonard),h,01/03.2827/2022,132.7049,255.8974,225.1077,1.000002,0.615638,2000,8.5,4.0
# From MPEC 2022-F14
